ONEWEB-0196             
1 48218U 21031J   24238.43855813  .00000103  00000+0  24423-3 0  9997
2 48218  87.8925  61.1189 0001704  91.2824 268.8501 13.14502202161411
ONEWEB-0183             
1 48219U 21031K   24238.48929336  .00000185  00000+0  46553-3 0  9993
2 48219  87.8922  61.1244 0001891  87.4194 272.7152 13.14504795161522
ONEWEB-0185             
1 48220U 21031L   24237.90652522  .00000016  00000+0  75427-5 0  9998
2 48220  87.8924  61.2126 0001922  88.6475 271.4875 13.14503811161375
ONEWEB-0187             
1 48221U 21031M   24237.80027553  .00000165  00000+0  40931-3 0  9993
2 48221  87.8923  61.2673 0001877  89.2622 270.8723 13.14504438161373
ONEWEB-0192             
1 48222U 21031N   24238.46550798 -.00000209  00000+0 -59777-3 0  9998
2 48222  87.8923  61.1315 0001692  93.0155 267.1168 13.14503311161387
ONEWEB-0219             
1 48223U 21031P   24238.44490680 -.00000053  00000+0 -17621-3 0  9999
2 48223  87.8924  61.1099 0001929  90.9260 269.2091 13.14502906161583
ONEWEB-0202             
1 48224U 21031Q   24238.42586676  .00000206  00000+0  52097-3 0  9993
2 48224  87.8922  61.1321 0001957 115.6525 244.4807 13.14503709161560
ONEWEB-0204             
1 48225U 21031R   24238.07937213 -.00000245  00000+0 -69547-3 0  9995
2 48225  87.8922  61.2132 0001892  78.1544 281.9798 13.14503767161417
